NORAD_CAT_ID,OBJECT_NAME,OBJECT_TYPE,EPOCH,MEAN_MOTION,ECCENTRICITY,INCLINATION,RA_OF_ASC_NODE,ARG_OF_PERICENTER,MEAN_ANOMALY,BSTAR,MEAN_MOTION_DOT,MEAN_MOTION_DDOT,TLE_LINE0,TLE_LINE1,TLE_LINE2,SEMIMAJOR_AXIS,PERIOD,APOGEE,PERIGEE,DECAYED
56801.0,STARLINK-6087,PAYLOAD,2024-06-14 14:03:24,14.9833114,0.0002841,69.9989,120.6152,271.6696,88.4138,0.00018618,2.129e-05,0.0,0 STARLINK-6087,1 56801U 23078AL  24166.58569938  .00002129  00000-0  18618-3 0  9993,2 56801  69.9989 120.6152 0002841 271.6696  88.4138 14.98331140 58347,6950.189,96.107,574.029,570.08,0.0
56801.0,STARLINK-6087,PAYLOAD,2024-06-14 22:04:04,14.98339121,0.0002855,69.9989,119.7737,269.254,90.8292,0.0001226,1.37e-05,0.0,0 STARLINK-6087,1 56801U 23078AL  24166.91949496  .00001370  00000-0  12260-3 0  9995,2 56801  69.9989 119.7737 0002855 269.2540  90.8292 14.98339121 58391,6950.165,96.106,574.014,570.045,0.0
56801.0,STARLINK-6087,PAYLOAD,2024-06-15 06:04:44,14.98343455,0.0002817,69.999,118.9321,269.5347,90.5489,0.00015631,1.773e-05,0.0,0 STARLINK-6087,1 56801U 23078AL  24167.25328873  .00001773  00000-0  15631-3 0  9995,2 56801  69.9990 118.9321 0002817 269.5347  90.5489 14.98343455 58445,6950.151,96.106,573.974,570.058,0.0
56801.0,STARLINK-6087,PAYLOAD,2024-06-15 22:06:05,14.98337868,0.0002606,69.9996,117.2487,267.3173,92.7688,-8.2169e-05,-1.073e-05,0.0,0 STARLINK-6087,1 56801U 23078AL  24167.92089439 -.00001073  00000-0 -82169-4 0  9997,2 56801  69.9996 117.2487 0002606 267.3173  92.7688 14.98337868 58542,6950.169,96.106,573.845,570.222,0.0
56801.0,STARLINK-6087,PAYLOAD,2024-06-16 14:07:26,14.98332636,0.000271,69.9994,115.566,270.7059,89.379,-0.00013731,-1.731e-05,0.0,0 STARLINK-6087,1 56801U 23078AL  24168.58849573 -.00001731  00000-0 -13731-3 0  9992,2 56801  69.9994 115.5660 0002710 270.7059  89.3790 14.98332636 58646,6950.185,96.107,573.933,570.166,0.0
56801.0,STARLINK-6087,PAYLOAD,2024-06-16 22:08:06,14.98331872,0.0002745,69.9995,114.7247,271.4806,88.6039,-0.00013257,-1.674e-05,0.0,0 STARLINK-6087,1 56801U 23078AL  24168.92229523 -.00001674  00000-0 -13257-3 0  9996,2 56801  69.9995 114.7247 0002745 271.4806  88.6039 14.98331872 58699,6950.187,96.107,573.96,570.144,0.0
56801.0,STARLINK-6087,PAYLOAD,2024-06-17 22:10:07,14.9832864,0.0002651,69.9995,112.1981,269.2636,90.822,-4.1844e-07,-9.8e-07,0.0,0 STARLINK-6087,1 56801U 23078AL  24169.92369215 -.00000098  00000-0 -41844-6 0  9995,2 56801  69.9995 112.1981 0002651 269.2636  90.8220 14.98328640 58841,6950.197,96.107,573.905,570.22,0.0
56801.0,STARLINK-6087,PAYLOAD,2024-06-18 06:10:47,14.98330831,0.0002786,69.9995,111.3572,269.9031,90.1809,2.4845e-05,2.03e-06,0.0,0 STARLINK-6087,1 56801U 23078AL  24170.25749014  .00000203  00000-0  24845-4 0  9998,2 56801  69.9995 111.3572 0002786 269.9031  90.1809 14.98330831 59159,6950.19,96.107,573.992,570.119,0.0
56801.0,STARLINK-6087,PAYLOAD,2024-06-18 20:35:58,14.98337993,0.0002834,69.9994,109.8423,269.6807,90.4027,0.00015035,1.702e-05,0.0,0 STARLINK-6087,1 56801U 23078AL  24170.85832020  .00001702  00000-0  15035-3 0  9999,2 56801  69.9994 109.8423 0002834 269.6807  90.4027 14.98337993 58988,6950.168,96.106,574.003,570.063,0.0
56801.0,STARLINK-6087,PAYLOAD,2024-06-19 04:36:38,14.98343221,0.000284,69.9994,109.0007,269.7133,90.37,0.00015308,1.735e-05,0.0,0 STARLINK-6087,1 56801U 23078AL  24171.19211474  .00001735  00000-0  15308-3 0  9990,2 56801  69.9994 109.0007 0002840 269.7133  90.3700 14.98343221 59291,6950.152,96.106,573.991,570.043,0.0
56801.0,STARLINK-6087,PAYLOAD,2024-06-19 12:37:19,14.9834142,0.0003115,70.0015,108.16,266.4242,93.6561,-0.00013525,-1.707e-05,0.0,0 STARLINK-6087,1 56801U 23078AL  24171.52591899 -.00001707  00000-0 -13525-3 0  9999,2 56801  70.0015 108.1600 0003115 266.4242  93.6561 14.98341420 59344,6950.158,96.106,574.188,569.858,0.0
56801.0,STARLINK-6087,PAYLOAD,2024-06-19 20:38:00,14.98328544,0.0002392,69.9994,107.3176,274.4213,85.6672,-2.4282e-05,-3.83e-06,0.0,0 STARLINK-6087,1 56801U 23078AL  24171.85972832 -.00000383  00000-0 -24282-4 0  9997,2 56801  69.9994 107.3176 0002392 274.4213  85.6672 14.98328544 59390,6950.197,96.107,573.725,570.4,0.0
56801.0,STARLINK-6087,PAYLOAD,2024-06-19 22:14:09,14.9832291,0.0002674,69.9998,107.1495,269.623,90.4623,-0.00010674,-1.366e-05,0.0,0 STARLINK-6087,1 56801U 23078AL  24171.92649334 -.00001366  00000-0 -10674-3 0  9994,2 56801  69.9998 107.1495 0002674 269.6230  90.4623 14.98322910 59148,6950.215,96.107,573.938,570.221,0.0
56801.0,STARLINK-6087,PAYLOAD,2024-06-20 12:39:21,14.98327675,0.0002714,69.9996,105.6346,270.9811,89.1037,-0.00010585,-1.356e-05,0.0,0 STARLINK-6087,1 56801U 23078AL  24172.52733130 -.00001356  00000-0 -10585-3 0  9999,2 56801  69.9996 105.6346 0002714 270.9811  89.1037 14.98327675 59236,6950.2,96.107,573.951,570.179,0.0
56801.0,STARLINK-6087,PAYLOAD,2024-06-20 22:16:09,14.98334718,0.0002587,70.0,104.6254,265.9264,94.1599,-0.00011566,-1.473e-05,0.0,0 STARLINK-6087,1 56801U 23078AL  24172.92788669 -.00001473  00000-0 -11566-3 0  9990,2 56801  70.0000 104.6254 0002587 265.9264  94.1599 14.98334718 59556,6950.178,96.107,573.841,570.245,0.0
56801.0,STARLINK-6087,PAYLOAD,2024-06-21 06:16:49,14.98332996,0.0002575,70.0001,103.7835,269.0303,91.0561,-0.00011024,-1.408e-05,0.0,0 STARLINK-6087,1 56801U 23078AL  24173.26168738 -.00001408  00000-0 -11024-3 0  9994,2 56801  70.0001 103.7835 0002575 269.0303  91.0561 14.98332996 59346,6950.184,96.107,573.838,570.259,0.0
56801.0,STARLINK-6087,PAYLOAD,2024-06-21 20:42:02,14.98322446,0.0002718,69.9997,102.2682,269.831,90.2537,7.423e-05,7.93e-06,0.0,0 STARLINK-6087,1 56801U 23078AL  24173.86252916  .00000793  00000-0  74230-4 0  9995,2 56801  69.9997 102.2682 0002718 269.8310  90.2537 14.98322446 59697,6950.216,96.107,573.97,570.192,0.0
56801.0,STARLINK-6087,PAYLOAD,2024-06-21 22:18:10,14.98322243,0.0002725,69.9997,102.0998,269.827,90.2577,7.1069e-05,7.55e-06,0.0,0 STARLINK-6087,1 56801U 23078AL  24173.92928966  .00000755  00000-0  71069-4 0  9992,2 56801  69.9997 102.0998 0002725 269.8270  90.2577 14.98322243 59440,6950.217,96.107,573.976,570.188,0.0
56801.0,STARLINK-6087,PAYLOAD,2024-06-22 04:42:42,14.98325355,0.0002766,69.9996,101.4263,269.9979,90.0863,6.0386e-05,6.28e-06,0.0,0 STARLINK-6087,1 56801U 23078AL  24174.19632896  .00000628  00000-0  60386-4 0  9995,2 56801  69.9996 101.4263 0002766 269.9979  90.0863 14.98325355 59486,6950.207,96.107,573.995,570.15,0.0
56801.0,STARLINK-6087,PAYLOAD,2024-06-22 20:44:03,14.98328304,0.0002783,69.9997,99.7432,270.3368,89.7472,4.613e-05,4.57e-06,0.0,0 STARLINK-6087,1 56801U 23078AL  24174.86392851  .00000457  00000-0  46130-4 0  9994,2 56801  69.9997  99.7432 0002783 270.3368  89.7472 14.98328304 59849,6950.198,96.107,573.997,570.129,0.0
56801.0,STARLINK-6087,PAYLOAD,2024-06-22 22:20:11,14.98327971,0.000279,69.9997,99.5749,270.3517,89.7322,4.226e-05,4.11e-06,0.0,0 STARLINK-6087,1 56801U 23078AL  24174.93068886  .00000411  00000-0  42260-4 0  9990,2 56801  69.9997  99.5749 0002790 270.3517  89.7322 14.98327971 59597,6950.199,96.107,574.003,570.125,0.0
56801.0,STARLINK-6087,PAYLOAD,2024-06-23 04:44:43,14.98331608,0.0002777,69.9997,98.901,268.726,91.358,5.1856e-05,5.26e-06,0.0,0 STARLINK-6087,1 56801U 23078AL  24175.19772618  .00000526  00000-0  51856-4 0  9992,2 56801  69.9997  98.9010 0002777 268.7260  91.3580 14.98331608 59634,6950.188,96.107,573.983,570.123,0.0
56801.0,STARLINK-6087,PAYLOAD,2024-06-23 20:46:04,14.98330028,0.0002779,69.9998,97.2188,266.3289,93.7552,3.2874e-06,-5.4e-07,0.0,0 STARLINK-6087,1 56801U 23078AL  24175.86532797 -.00000054  00000-0  32874-5 0  9995,2 56801  69.9998  97.2188 0002779 266.3289  93.7552 14.98330028 59999,6950.193,96.107,573.989,570.126,0.0
56801.0,STARLINK-6087,PAYLOAD,2024-06-23 22:22:12,14.98330037,0.0002781,69.9998,97.0504,266.3342,93.7499,3.2107e-06,-5.5e-07,0.0,0 STARLINK-6087,1 56801U 23078AL  24175.93208792 -.00000055  00000-0  32107-5 0  9998,2 56801  69.9998  97.0504 0002781 266.3342  93.7499 14.98330037 59745,6950.193,96.107,573.991,570.125,0.0
56801.0,STARLINK-6087,PAYLOAD,2024-06-24 04:46:44,14.98332138,0.0002719,70.0,96.3776,263.6677,96.4172,2.6987e-05,2.29e-06,0.0,0 STARLINK-6087,1 56801U 23078AL  24176.19912555  .00000229  00000-0  26987-4 0  9996,2 56801  70.0000  96.3776 0002719 263.6677  96.4172 14.98332138 59783,6950.186,96.107,573.941,570.162,0.0
56801.0,STARLINK-6087,PAYLOAD,2024-06-24 20:48:05,14.98330397,0.000266,70.0002,94.6947,263.9778,96.1078,-1.6837e-05,-2.94e-06,0.0,0 STARLINK-6087,1 56801U 23078AL  24176.86672723 -.00000294  00000-0 -16837-4 0  9997,2 56801  70.0002  94.6947 0002660 263.9778  96.1078 14.98330397 60145,6950.192,96.107,573.905,570.208,0.0
56801.0,STARLINK-6087,PAYLOAD,2024-06-25 04:48:45,14.98329596,0.0002674,70.0003,93.8532,264.595,95.4904,-2.4551e-05,-3.86e-06,0.0,0 STARLINK-6087,1 56801U 23078AL  24177.20052792 -.00000386  00000-0 -24551-4 0  9998,2 56801  70.0003  93.8532 0002674 264.5950  95.4904 14.98329596 59935,6950.194,96.107,573.918,570.201,0.0
56801.0,STARLINK-6087,PAYLOAD,2024-06-25 20:50:05,14.98333645,0.0002715,70.0002,92.1697,263.7459,96.3391,1.451e-05,8e-07,0.0,0 STARLINK-6087,1 56801U 23078AL  24177.86812314  .00000080  00000-0  14510-4 0  9997,2 56801  70.0002  92.1697 0002715 263.7459  96.3391 14.98333645 60290,6950.182,96.107,573.934,570.16,0.0
56801.0,STARLINK-6087,PAYLOAD,2024-06-25 22:26:13,14.98333665,0.0002717,70.0002,92.0014,263.7126,96.3724,1.4681e-05,8.2e-07,0.0,0 STARLINK-6087,1 56801U 23078AL  24177.93488295  .00000082  00000-0  14681-4 0  9993,2 56801  70.0002  92.0014 0002717 263.7126  96.3724 14.98333665 60040,6950.182,96.107,573.935,570.158,0.0
56801.0,STARLINK-6087,PAYLOAD,2024-06-26 04:50:45,14.98337244,0.0002632,70.0004,91.3279,264.0219,96.064,5.9311e-05,6.15e-06,0.0,0 STARLINK-6087,1 56801U 23078AL  24178.20191852  .00000615  00000-0  59311-4 0  9995,2 56801  70.0004  91.3279 0002632 264.0219  96.0640 14.98337244 60085,6950.17,96.107,573.865,570.206,0.0
